{
  "links" : {
    "next" : "https://api.nasa.gov/neo/rest/v1/feed?start_date=2004-11-23&end_date=2004-11-23&detailed=true&api_key=t0TVs3DtDT2H8Oy2Zy8m2eVrNsAVKAexjcZXUckd",
    "prev" : "https://api.nasa.gov/neo/rest/v1/feed?start_date=2004-11-21&end_date=2004-11-21&detailed=true&api_key=t0TVs3DtDT2H8Oy2Zy8m2eVrNsAVKAexjcZXUckd",
    "self" : "https://api.nasa.gov/neo/rest/v1/feed?start_date=2004-11-22&end_date=2004-11-22&detailed=true&api_key=t0TVs3DtDT2H8Oy2Zy8m2eVrNsAVKAexjcZXUckd"
  },
  "element_count" : 5,
  "near_earth_objects" : {
    "2004-11-22" : [ {
      "links" : {
        "self" : "https://api.nasa.gov/neo/rest/v1/neo/3738544?api_key=t0TVs3DtDT2H8Oy2Zy8m2eVrNsAVKAexjcZXUckd"
      },
      "neo_reference_id" : "3738544",
      "name" : "(2015 YG)",
      "nasa_jpl_url" : "http://ssd.jpl.nasa.gov/sbdb.cgi?sstr=3738544",
      "absolute_magnitude_h" : 23.2,
      "estimated_diameter" : {
        "kilometers" : {
          "estimated_diameter_min" : 0.0608912622,
          "estimated_diameter_max" : 0.1361570015
        },
        "meters" : {
          "estimated_diameter_min" : 60.8912622106,
          "estimated_diameter_max" : 136.1570015386
        },
        "miles" : {
          "estimated_diameter_min" : 0.0378360645,
          "estimated_diameter_max" : 0.0846040122
        },
        "feet" : {
          "estimated_diameter_min" : 199.7744887109,
          "estimated_diameter_max" : 446.7093369279
        }
      },
      "is_potentially_hazardous_asteroid" : false,
      "close_approach_data" : [ {
        "close_approach_date" : "2004-11-22",
        "epoch_date_close_approach" : 1101110400000,
        "relative_velocity" : {
          "kilometers_per_second" : "13.6596164965",
          "kilometers_per_hour" : "49174.6193873626",
          "miles_per_hour" : "30555.1961409976"
        },
        "miss_distance" : {
          "astronomical" : "0.1333260877",
          "lunar" : "51.8638458252",
          "kilometers" : "19945298",
          "miles" : "12393434"
        },
        "orbiting_body" : "Earth"
      } ],
      "orbital_data" : {
        "orbit_id" : "6",
        "orbit_determination_date" : "2017-04-06 08:29:45",
        "orbit_uncertainty" : "7",
        "minimum_orbit_intersection" : ".0945389",
        "jupiter_tisserand_invariant" : "7.606",
        "epoch_osculation" : "2458000.5",
        "eccentricity" : ".4872196875536879",
        "semi_major_axis" : ".7470318295685924",
        "inclination" : "14.61162529977332",
        "ascending_node_longitude" : "267.9638221876668",
        "orbital_period" : "235.8343636565311",
        "perihelion_distance" : ".383063214973523",
        "perihelion_argument" : "355.2488685140135",
        "aphelion_distance" : "1.111000444163662",
        "perihelion_time" : "2457970.166196121118",
        "mean_anomaly" : "46.30440291687798",
        "mean_motion" : "1.526495097738613",
        "equinox" : "J2000"
      }
    }, {
      "links" : {
        "self" : "https://api.nasa.gov/neo/rest/v1/neo/3719999?api_key=t0TVs3DtDT2H8Oy2Zy8m2eVrNsAVKAexjcZXUckd"
      },
      "neo_reference_id" : "3719999",
      "name" : "(2015 KR120)",
      "nasa_jpl_url" : "http://ssd.jpl.nasa.gov/sbdb.cgi?sstr=3719999",
      "absolute_magnitude_h" : 22.8,
      "estimated_diameter" : {
        "kilometers" : {
          "estimated_diameter_min" : 0.0732073989,
          "estimated_diameter_max" : 0.1636967205
        },
        "meters" : {
          "estimated_diameter_min" : 73.2073989347,
          "estimated_diameter_max" : 163.696720474
        },
        "miles" : {
          "estimated_diameter_min" : 0.0454889547,
          "estimated_diameter_max" : 0.1017163949
        },
        "feet" : {
          "estimated_diameter_min" : 240.181762721,
          "estimated_diameter_max" : 537.0627483999
        }
      },
      "is_potentially_hazardous_asteroid" : false,
      "close_approach_data" : [ {
        "close_approach_date" : "2004-11-22",
        "epoch_date_close_approach" : 1101110400000,
        "relative_velocity" : {
          "kilometers_per_second" : "12.7354531459",
          "kilometers_per_hour" : "45847.6313250935",
          "miles_per_hour" : "28487.9351419727"
        },
        "miss_distance" : {
          "astronomical" : "0.1479670924",
          "lunar" : "57.5591964722",
          "kilometers" : "22135562",
          "miles" : "13754400"
        },
        "orbiting_body" : "Earth"
      } ],
      "orbital_data" : {
        "orbit_id" : "7",
        "orbit_determination_date" : "2017-04-06 08:33:30",
        "orbit_uncertainty" : "7",
        "minimum_orbit_intersection" : ".0149764",
        "jupiter_tisserand_invariant" : "5.014",
        "epoch_osculation" : "2458000.5",
        "eccentricity" : ".3313359654034015",
        "semi_major_axis" : "1.274667366110939",
        "inclination" : "3.465254399961029",
        "ascending_node_longitude" : "216.475831255965",
        "orbital_period" : "525.6464402529209",
        "perihelion_distance" : ".8523242237923597",
        "perihelion_argument" : "279.0750643206352",
        "aphelion_distance" : "1.697010508429518",
        "perihelion_time" : "2458114.161832479582",
        "mean_anomaly" : "282.1563078160273",
        "mean_motion" : ".6848709939456297",
        "equinox" : "J2000"
      }
    } ]
  }
}